ORBCOMM FM33            
1 25983U 99065D   25189.66879422  .00000476  00000+0  19442-3 0  9994
2 25983  45.0280 256.8259 0009255 184.7531 175.3231 14.40032053339161
ORBCOMM FM36            
1 25984U 99065E   25189.73132654  .00000684  00000+0  26994-3 0  9993
2 25984  45.0407 348.7943 0002639  73.4516 286.6623 14.38160859337522
ORBCOMM FM35            
1 25985U 99065F   25189.86551701  .00000532  00000+0  22481-3 0  9995
2 25985  45.0409 353.3639 0004577 149.5738 210.5376 14.37128166337900
ORBCOMM FM34            
1 25986U 99065G   25189.76167708  .00000450  00000+0  19735-3 0  9992
2 25986  45.0407 354.3193 0004183 105.5572 254.5739 14.37147962338004
ORBCOMM FM38            
1 33060U 08031A   25189.52690427  .00000871  00000+0  13756-3 0  9994
2 33060  48.4392 213.5456 0004219 136.4973 223.6276 14.81378446917910
ORBCOMM FM41            
1 33061U 08031B   25189.56093370  .00000805  00000+0  13031-3 0  9996
2 33061  48.4428 221.2360 0003379 119.1669  13.2024 14.80962195917404
ORBCOMM FM29            
1 33062U 08031C   25189.54777230  .00000830  00000+0  13323-3 0  9991
2 33062  48.4382 229.0824 0005052 117.8470  36.1702 14.81066648917316
ORBCOMM FM39            
1 33063U 08031D   25189.63820220  .00000757  00000+0  12800-3 0  9997
2 33063  48.4401 253.1603 0005971  86.7383 273.4215 14.79615276916979
